ONEWEB-0156             
1 48052U 21025L   24243.07681668 -.00000225  00000+0 -65153-3 0  9999
2 48052  87.8860  90.7820 0001737  82.9704 277.1622 13.13470221167456
ONEWEB-0161             
1 48053U 21025M   24242.28805637 -.00000035  00000+0 -13175-3 0  9992
2 48053  87.8864  90.9490 0001837  87.9807 272.1532 13.13471143167275
ONEWEB-0158             
1 48054U 21025N   24242.32614142 -.00000106  00000+0 -32559-3 0  9993
2 48054  87.8863  90.9300 0001686  77.7658 282.3660 13.13470896167402
ONEWEB-0157             
1 48055U 21025P   24243.11174689  .00000386  00000+0  10221-2 0  9998
2 48055  87.8858  90.7871 0001938  83.2531 276.8819 13.13469093167456
ONEWEB-0162             
1 48056U 21025Q   24243.07522652 -.00000427  00000+0 -12035-2 0  9994
2 48056  87.8859  90.7890 0001801  81.8070 278.3263 13.13469683167398
ONEWEB-0155             
1 48057U 21025R   24243.09585184  .00000231  00000+0  59795-3 0  9992
2 48057  87.8858  90.7965 0001841  91.0431 269.0910 13.13473696167563
ONEWEB-0149             
1 48058U 21025S   24242.27853818  .00000230  00000+0  59347-3 0  9996
2 48058  87.8859  90.9559 0001904  77.3758 282.7584 13.13471299167257
ONEWEB-0148             
1 48059U 21025T   24242.31981798 -.00000025  00000+0 -10297-3 0  9996
2 48059  87.8866  90.9604 0002307  75.6468 284.4917 13.13470226167386
ONEWEB-0160             
1 48060U 21025U   24243.09745560  .00000311  00000+0  81720-3 0  9994
2 48060  87.8862  90.8011 0000960  58.4402 301.6821 13.13469905167439
ONEWEB-0163             
1 48061U 21025V   24242.32139916  .00000033  00000+0  54092-4 0  9996
2 48061  87.8862  90.9466 0001962  87.7192 272.4162 13.13469322167457
ONEWEB-0159             
1 48062U 21025W   24243.14824382 -.00000233  00000+0 -67278-3 0  9999
2 48062  87.8860  90.7637 0001962  82.7851 277.3501 13.13470513167489
ONEWEB-0164             
1 48063U 21025X   24242.29282240 -.00000106  00000+0 -32552-3 0  9992
2 48063  87.8860  90.9454 0001635  84.8883 275.2433 13.13470512167350
ONEWEB-0167             
1 48064U 21025Y   24243.08395629 -.00000111  00000+0 -33978-3 0  9996
2 48064  87.8863  90.8001 0001931  85.9425 274.1924 13.13470946167448
ONEWEB-0166             
1 48065U 21025Z   24242.34361253  .00000328  00000+0  86208-3 0  9993
2 48065  87.8857  90.9287 0001843  78.0977 282.0359 13.13469754167429
ONEWEB-0151             
1 48066U 21025AA  24242.34520168  .00000318  00000+0  83641-3 0  9993
2 48066  87.8860  90.9435 0001615  86.6388 273.4926 13.13470680167364
ONEWEB-0170             
1 48067U 21025AB  24242.27695583  .00000266  00000+0  69441-3 0  9994
2 48067  87.8859  90.9599 0001120  93.0123 267.1135 13.13468997167319
ONEWEB-0168             
1 48068U 21025AC  24242.33885568  .00000345  00000+0  91082-3 0  9990
2 48068  87.8863  90.9195 0001752  83.8870 276.2458 13.13469528167336
ONEWEB-0173             
1 48069U 21025AD  24242.94033905  .00000080  00000+0  18348-3 0  9998
2 48069  87.8865  90.8090 0001964  96.0086 264.1267 13.13469372167658
ONEWEB-0171             
1 48070U 21025AE  24242.29122903 -.00000106  00000+0 -32577-3 0  9996
2 48070  87.8862  90.9748 0001683  87.5761 272.5561 13.13468132167384
ONEWEB-0172             
1 48071U 21025AF  24242.11825158  .00000357  00000+0  94167-3 0  9999
2 48071  87.8864  90.9758 0001695  89.1598 270.9725 13.13469520168250
ONEWEB-0174             
1 48072U 21025AG  24242.93875442  .00000011  00000+0 -48326-5 0  9997
2 48072  87.8865  90.8260 0001826  79.9576 280.1759 13.13469122167682
ONEWEB-0175             
1 48073U 21025AH  24243.11967324  .00000289  00000+0  75766-3 0  9992
2 48073  87.8857  90.7740 0001482  93.8262 266.3037 13.13469410167361
ONEWEB-0177             
1 48074U 21025AJ  24242.29441509 -.00000167  00000+0 -49255-3 0  9994
2 48074  87.8861  90.9480 0002116  88.6828 271.4544 13.13470281167442
ONEWEB-0178             
1 48075U 21025AK  24243.14996395 -.00000253  00000+0 -72768-3 0  9999
2 48075  87.8864  90.7997 0001896  86.4842 273.6504 13.13469220167602
ONEWEB-0108             
1 48076U 21025AL  24242.34837377  .00000269  00000+0  70115-3 0  9994
2 48076  87.8857  90.9342 0001712  75.5041 284.6278 13.13469014167429
ONEWEB-0169             
1 48077U 21025AM  24243.06570028 -.00000403  00000+0 -11376-2 0  9997
2 48077  87.8863  90.8021 0001755  75.5962 284.5362 13.13470323167416
ONEWEB-0176             
1 48210U 21031A   24243.19591313  .00000080  00000+0  17995-3 0  9990
2 48210  87.8928  60.1640 0001714  90.5865 269.5461 13.14503563163422
ONEWEB-0184             
1 48211U 21031B   24242.94059988  .00000315  00000+0  81543-3 0  9991
2 48211  87.8928  60.1960 0001596 125.9986 234.1291 13.14504288162077
ONEWEB-0179             
1 48212U 21031C   24243.06270493 -.00000544  00000+0 -15029-2 0  9993
2 48212  87.8926  60.1772 0001835  90.8945 269.2395 13.14501470162139
ONEWEB-0180             
1 48213U 21031D   24243.01990488  .00000213  00000+0  53961-3 0  9991
2 48213  87.8926  60.1819 0001919  92.1183 268.0166 13.14500622162012
ONEWEB-0218             
1 48214U 21031E   24243.19433318  .00000090  00000+0  20811-3 0  9996
2 48214  87.8924  60.1486 0002039 122.8079 237.3247 13.14500489162199
ONEWEB-0209             
1 48215U 21031F   24243.03100059  .00000204  00000+0  51651-3 0  9996
2 48215  87.8931  60.2171 0001923  91.0667 269.0683 13.14500150162170
ONEWEB-0198             
1 48216U 21031G   24242.93903091  .00000295  00000+0  76003-3 0  9990
2 48216  87.8927  60.2395 0001928 102.2967 257.8378 13.14500677162256
ONEWEB-0189             
1 48217U 21031H   24243.02782413  .00000265  00000+0  67952-3 0  9995
2 48217  87.8928  60.1971 0002008 102.5773 257.5581 13.14503619162022
ONEWEB-0196             
1 48218U 21031J   24242.77727155  .00000073  00000+0  16269-3 0  9991
2 48218  87.8929  60.2522 0001711  92.1813 267.9513 13.14502843161999
ONEWEB-0183             
1 48219U 21031K   24243.20860019 -.00000048  00000+0 -16430-3 0  9992
2 48219  87.8928  60.1813 0001867  86.9719 273.1624 13.14500327162144
ONEWEB-0185             
1 48220U 21031L   24242.77806044  .00000116  00000+0  27897-3 0  9996
2 48220  87.8925  60.2394 0001928  88.3967 271.7383 13.14504281162012
ONEWEB-0187             
1 48221U 21031M   24242.74793245 -.00000032  00000+0 -12128-3 0  9992
2 48221  87.8924  60.2793 0001903  89.1064 271.0283 13.14500345162025
ONEWEB-0192             
1 48222U 21031N   24242.42363536 -.00000082  00000+0 -25602-3 0  9990
2 48222  87.8927  60.3413 0001715  93.8515 266.2811 13.14501740161890
ONEWEB-0219             
1 48223U 21031P   24242.93585480  .00000149  00000+0  36698-3 0  9990
2 48223  87.8925  60.2127 0001937  90.7174 269.4178 13.14504073162167
ONEWEB-0202             
1 48224U 21031Q   24242.76458005 -.00000195  00000+0 -55948-3 0  9996
2 48224  87.8924  60.2654 0002135 113.4105 246.7249 13.14500484162125
ONEWEB-0204             
1 48225U 21031R   24242.79867425  .00000290  00000+0  74695-3 0  9994
2 48225  87.8931  60.2709 0001775  77.7318 282.4010 13.14504309162024
ONEWEB-0205             
1 48226U 21031S   24242.77409362  .00000065  00000+0  14087-3 0  9994
2 48226  87.8923  60.2466 0001928  92.1321 268.0029 13.14502964162037
ONEWEB-0206             
1 48227U 21031T   24243.20385599 -.00000022  00000+0 -94834-4 0  9993
2 48227  87.8922  60.1486 0002109  88.4661 271.6711 13.14498354162052
ONEWEB-0182             
1 48228U 21031U   24242.43791153 -.00000188  00000+0 -54126-3 0  9997
2 48228  87.8926  60.3320 0001775  84.0337 276.0995 13.14502875162154
ONEWEB-0186             
1 48229U 21031V   24242.75351568 -.00002550  00000+0 -69159-2 0  9991
2 48229  87.8991  60.2263 0001465  93.1757 266.9541 13.14482136162146
ONEWEB-0181             
1 48230U 21031W   24242.42681154  .00000029  00000+0  44939-4 0  9992
2 48230  87.8927  60.3676 0001767  95.6198 264.5133 13.14503042161956
ONEWEB-0188             
1 48231U 21031X   24242.76934992 -.00000006  00000+0 -50444-4 0  9996
2 48231  87.8926  60.2938 0001821  89.7897 270.3442 13.14501591161907
ONEWEB-0220             
1 48232U 21031Y   24242.42839633  .00000010  00000+0 -62697-5 0  9994
2 48232  87.8922  60.3223 0002082  91.0272 269.1096 13.14502962162124
ONEWEB-0165             
1 48233U 21031Z   24242.76141313 -.00000156  00000+0 -45629-3 0  9999
2 48233  87.8927  60.2770 0001873  94.3283 265.8061 13.14503133162127
ONEWEB-0199             
1 48234U 21031AA  24242.74554566 -.00000207  00000+0 -59243-3 0  9990
2 48234  87.8925  60.2488 0001566  89.0606 271.0703 13.14503382162028
ONEWEB-0203             
1 48235U 21031AB  24242.43156291 -.00000035  00000+0 -12880-3 0  9995
2 48235  87.8927  60.3132 0001332 100.6982 259.4298 13.14504059161992
ONEWEB-0197             
1 48236U 21031AC  24243.01592874  .00000237  00000+0  60467-3 0  9998
2 48236  87.8927  60.2057 0001809  79.2027 280.9306 13.14503615161983
ONEWEB-0194             
1 48237U 21031AD  24242.23333957 -.00000320  00000+0 -89734-3 0  9990
2 48237  87.8926  60.3555 0001449  91.5000 268.6296 13.14502585162050
ONEWEB-0193             
1 48238U 21031AE  24242.93425614  .00000091  00000+0  21061-3 0  9992
2 48238  87.8926  60.2237 0001679  94.8354 265.2968 13.14504491162091
ONEWEB-0191             
1 48239U 21031AF  24242.94537060  .00000237  00000+0  60497-3 0  9991
2 48239  87.8924  60.2029 0001770  94.9322 265.2010 13.14501662161956
ONEWEB-0195             
1 48240U 21031AG  24242.77012943 -.00000025  00000+0 -10182-3 0  9995
2 48240  87.8926  60.2368 0002007  99.8805 260.2552 13.14504228161913
ONEWEB-0201             
1 48241U 21031AH  24242.75903186 -.00000150  00000+0 -43909-3 0  9994
2 48241  87.8925  60.2757 0001860  92.6927 267.4416 13.14503621162147
ONEWEB-0207             
1 48242U 21031AJ  24242.43394342 -.00000064  00000+0 -20656-3 0  9996
2 48242  87.8926  60.3060 0001927  85.2827 274.8523 13.14502785162015
